{
    "links": {
        "self": "http://www.neowsapp.com/rest/v1/neo/54054607?api_key=iIulBulltgU6a56xZRHN4H3l9WmuAYTsLGpBGhQ2"
    },
    "id": "54054607",
    "neo_reference_id": "54054607",
    "name": "(2020 SH4)",
    "designation": "2020 SH4",
    "nasa_jpl_url": "http://ssd.jpl.nasa.gov/sbdb.cgi?sstr=54054607",
    "absolute_magnitude_h": 27.085,
    "estimated_diameter": {
        "kilometers": {
            "estimated_diameter_min": 0.0101754817,
            "estimated_diameter_max": 0.0227530687
        },
        "meters": {
            "estimated_diameter_min": 10.1754816774,
            "estimated_diameter_max": 22.7530687344
        },
        "miles": {
            "estimated_diameter_min": 0.0063227492,
            "estimated_diameter_max": 0.0141380971
        },
        "feet": {
            "estimated_diameter_min": 33.3841273064,
            "estimated_diameter_max": 74.6491780265
        }
    },
    "is_potentially_hazardous_asteroid": false,
    "close_approach_data": [
        {
            "close_approach_date": "2020-09-25",
            "close_approach_date_full": "2020-Sep-25 16:43",
            "epoch_date_close_approach": 1601052180000,
            "relative_velocity": {
                "kilometers_per_second": "19.4848790413",
                "kilometers_per_hour": "70145.5645485382",
                "miles_per_hour": "43585.7259273958"
            },
            "miss_distance": {
                "astronomical": "0.0084050113",
                "lunar": "3.2695493957",
                "kilometers": "1257371.787805931",
                "miles": "781294.5998306078"
            },
            "orbiting_body": "Moon"
        },
        {
            "close_approach_date": "2020-09-25",
            "close_approach_date_full": "2020-Sep-25 19:14",
            "epoch_date_close_approach": 1601061240000,
            "relative_velocity": {
                "kilometers_per_second": "18.5527981849",
                "kilometers_per_hour": "66790.0734655518",
                "miles_per_hour": "41500.754259748"
            },
            "miss_distance": {
                "astronomical": "0.0107663206",
                "lunar": "4.1880987134",
                "kilometers": "1610618.629497122",
                "miles": "1000792.0090274036"
            },
            "orbiting_body": "Earth"
        }
    ],
    "orbital_data": {
        "orbit_id": "2",
        "orbit_determination_date": "2020-09-25 06:32:42",
        "first_observation_date": "2020-09-16",
        "last_observation_date": "2020-09-24",
        "data_arc_in_days": 8,
        "observations_used": 18,
        "orbit_uncertainty": "8",
        "minimum_orbit_intersection": ".00223775",
        "jupiter_tisserand_invariant": "3.578",
        "epoch_osculation": "2459110.5",
        "eccentricity": ".6698922784762856",
        "semi_major_axis": "1.946659775581233",
        "inclination": "4.711830049146197",
        "ascending_node_longitude": "180.6730896282887",
        "orbital_period": "992.0498810899846",
        "perihelion_distance": ".6426074230989861",
        "perihelion_argument": "265.5771001957647",
        "aphelion_distance": "3.25071212806348",
        "perihelion_time": "2459165.514442432358",
        "mean_anomaly": "340.0360852280044",
        "mean_motion": ".3628849787315744",
        "equinox": "J2000",
        "orbit_class": {
            "orbit_class_type": "APO",
            "orbit_class_description": "Near-Earth asteroid orbits which cross the Earth’s orbit similar to that of 1862 Apollo",
            "orbit_class_range": "a (semi-major axis) > 1.0 AU; q (perihelion) < 1.017 AU"
        }
    },
    "is_sentry_object": false
}